{
  "type": "FeatureCollection",
  "features": [
    {
      "type": "Feature",
      "properties": {
        "norad_id": 29843,
        "name": "FENGYUN 1C DEB",
        "group": "fengyun-1c-debris",
        "lat": -73.2404814420908,
        "lon": -27.256801209472744,
        "alt_km": 691.7839125942937,
        "timestamp": "2025-12-12T07:43:20.784922+00:00",
        "meta_object_name": "FENGYUN 1C DEB",
        "meta_object_id": "1999-025EM",
        "meta_epoch": "2025-12-12T00:32:18.832416",
        "meta_mean_motion": 14.28560916,
        "meta_eccentricity": 0.01917837,
        "meta_inclination": 99.0373,
        "meta_ra_of_asc_node": 184.3368,
        "meta_arg_of_pericenter": 292.8133,
        "meta_mean_anomaly": 225.742,
        "meta_ephemeris_type": 0,
        "meta_classification_type": "U",
        "meta_norad_cat_id": 29843,
        "meta_element_set_no": 999,
        "meta_rev_at_epoch": 98271,
        "meta_bstar": 0.00027627349,
        "meta_mean_motion_dot": 7.9e-06,
        "meta_mean_motion_ddot": 0,
        "tle_line1": "1 29843U 99025EM  25346.02244019  .00000790  00000+0  27627-3 0  9995",
        "tle_line2": "2 29843  99.0373 184.3368 0191783 292.8133 225.7420 14.28560916982710"
      },
      "geometry": {
        "type": "Point",
        "coordinates": [
          -27.256801209472744,
          -73.2404814420908
        ]
      }
    },
    {
      "type": "Feature",
      "properties": {
        "norad_id": 29844,
        "name": "FENGYUN 1C DEB",
        "group": "fengyun-1c-debris",
        "lat": -62.47818831390526,
        "lon": -94.77275912712643,
        "alt_km": 864.9624511377579,
        "timestamp": "2025-12-12T07:43:20.784933+00:00",
        "meta_object_name": "FENGYUN 1C DEB",
        "meta_object_id": "1999-025EN",
        "meta_epoch": "2025-12-11T23:38:39.499296",
        "meta_mean_motion": 14.31980576,
        "meta_eccentricity": 0.01680263,
        "meta_inclination": 98.936,
        "meta_ra_of_asc_node": 247.3047,
        "meta_arg_of_pericenter": 169.2613,
        "meta_mean_anomaly": 191.223,
        "meta_ephemeris_type": 0,
        "meta_classification_type": "U",
        "meta_norad_cat_id": 29844,
        "meta_element_set_no": 999,
        "meta_rev_at_epoch": 98330,
        "meta_bstar": 0.00065704918,
        "meta_mean_motion_dot": 2.009e-05,
        "meta_mean_motion_ddot": 0,
        "tle_line1": "1 29844U 99025EN  25345.98517939  .00002009  00000+0  65705-3 0  9998",
        "tle_line2": "2 29844  98.9360 247.3047 0168026 169.2613 191.2230 14.31980576983307"
      },
      "geometry": {
        "type": "Point",
        "coordinates": [
          -94.77275912712643,
          -62.47818831390526
        ]
      }
    },
    {
      "type": "Feature",
      "properties": {
        "norad_id": 29845,
        "name": "FENGYUN 1C DEB",
        "group": "fengyun-1c-debris",
        "lat": -15.044404141364158,
        "lon": 164.367234541908,
        "alt_km": 782.1680046518468,
        "timestamp": "2025-12-12T07:43:20.784943+00:00",
        "meta_object_name": "FENGYUN 1C DEB",
        "meta_object_id": "1999-025EP",
        "meta_epoch": "2025-12-12T00:11:28.245120",
        "meta_mean_motion": 14.26480446,
        "meta_eccentricity": 0.00778859,
        "meta_inclination": 98.5221,
        "meta_ra_of_asc_node": 346.3715,
        "meta_arg_of_pericenter": 133.3295,
        "meta_mean_anomaly": 250.4174,
        "meta_ephemeris_type": 0,
        "meta_classification_type": "U",
        "meta_norad_cat_id": 29845,
        "meta_element_set_no": 999,
        "meta_rev_at_epoch": 98099,
        "meta_bstar": 0.00087035692,
        "meta_mean_motion_dot": 2.123e-05,
        "meta_mean_motion_ddot": 0,
        "tle_line1": "1 29845U 99025EP  25346.00796580  .00002123  00000+0  87036-3 0  9992",
        "tle_line2": "2 29845  98.5221 346.3715 0077885 133.3295 250.4174 14.26480446980994"
      },
      "geometry": {
        "type": "Point",
        "coordinates": [
          164.367234541908,
          -15.044404141364158
        ]
      }
    },
    {
      "type": "Feature",
      "properties": {
        "norad_id": 29846,
        "name": "FENGYUN 1C DEB",
        "group": "fengyun-1c-debris",
        "lat": -54.23944065808095,
        "lon": -164.05982974372537,
        "alt_km": 814.7115876563848,
        "timestamp": "2025-12-12T07:43:20.784953+00:00",
        "meta_object_name": "FENGYUN 1C DEB",
        "meta_object_id": "1999-025EQ",
        "meta_epoch": "2025-12-11T22:43:27.154848",
        "meta_mean_motion": 14.19091391,
        "meta_eccentricity": 0.00839093,
        "meta_inclination": 98.6553,
        "meta_ra_of_asc_node": 27.7845,
        "meta_arg_of_pericenter": 306.6184,
        "meta_mean_anomaly": 175.0637,
        "meta_ephemeris_type": 0,
        "meta_classification_type": "U",
        "meta_norad_cat_id": 29846,
        "meta_element_set_no": 999,
        "meta_rev_at_epoch": 97848,
        "meta_bstar": 0.00020778657,
        "meta_mean_motion_dot": 4.06e-06,
        "meta_mean_motion_ddot": 0,
        "tle_line1": "1 29846U 99025EQ  25345.94684207  .00000406  00000+0  20779-3 0  9990",
        "tle_line2": "2 29846  98.6553  27.7845 0083909 306.6184 175.0637 14.19091391978480"
      },
      "geometry": {
        "type": "Point",
        "coordinates": [
          -164.05982974372537,
          -54.23944065808095
        ]
      }
    },
    {
      "type": "Feature",
      "properties": {
        "norad_id": 29847,
        "name": "FENGYUN 1C DEB",
        "group": "fengyun-1c-debris",
        "lat": 32.426547316729135,
        "lon": 167.95516089280326,
        "alt_km": 899.0732558361024,
        "timestamp": "2025-12-12T07:43:20.784963+00:00",
        "meta_object_name": "FENGYUN 1C DEB",
        "meta_object_id": "1999-025ER",
        "meta_epoch": "2025-12-11T22:46:15.905280",
        "meta_mean_motion": 14.02996625,
        "meta_eccentricity": 0.0085255,
        "meta_inclination": 98.9024,
        "meta_ra_of_asc_node": 341.876,
        "meta_arg_of_pericenter": 41.0595,
        "meta_mean_anomaly": 22.2703,
        "meta_ephemeris_type": 0,
        "meta_classification_type": "U",
        "meta_norad_cat_id": 29847,
        "meta_element_set_no": 999,
        "meta_rev_at_epoch": 96724,
        "meta_bstar": 0.00039376611,
        "meta_mean_motion_dot": 5.88e-06,
        "meta_mean_motion_ddot": 0,
        "tle_line1": "1 29847U 99025ER  25345.94879520  .00000588  00000+0  39377-3 0  9990",
        "tle_line2": "2 29847  98.9024 341.8760 0085255  41.0595  22.2703 14.02996625967240"
      },
      "geometry": {
        "type": "Point",
        "coordinates": [
          167.95516089280326,
          32.426547316729135
        ]
      }
    },
    {
      "type": "Feature",
      "properties": {
        "norad_id": 29848,
        "name": "FENGYUN 1C DEB",
        "group": "fengyun-1c-debris",
        "lat": -73.42811124397485,
        "lon": -117.87957192840524,
        "alt_km": 748.153802184399,
        "timestamp": "2025-12-12T07:43:20.784973+00:00",
        "meta_object_name": "FENGYUN 1C DEB",
        "meta_object_id": "1999-025ES",
        "meta_epoch": "2025-12-11T02:24:24.555744",
        "meta_mean_motion": 14.20551979,
        "meta_eccentricity": 0.01171963,
        "meta_inclination": 98.2485,
        "meta_ra_of_asc_node": 211.8063,
        "meta_arg_of_pericenter": 300.0672,
        "meta_mean_anomaly": 221.5517,
        "meta_ephemeris_type": 0,
        "meta_classification_type": "U",
        "meta_norad_cat_id": 29848,
        "meta_element_set_no": 999,
        "meta_rev_at_epoch": 97094,
        "meta_bstar": 0.0021792149,
        "meta_mean_motion_dot": 4.981e-05,
        "meta_mean_motion_ddot": 0,
        "tle_line1": "1 29848U 99025ES  25345.10028421  .00004981  00000+0  21792-2 0  9997",
        "tle_line2": "2 29848  98.2485 211.8063 0117196 300.0672 221.5517 14.20551979970948"
      },
      "geometry": {
        "type": "Point",
        "coordinates": [
          -117.87957192840524,
          -73.42811124397485
        ]
      }
    },
    {
      "type": "Feature",
      "properties": {
        "norad_id": 29849,
        "name": "FENGYUN 1C DEB",
        "group": "fengyun-1c-debris",
        "lat": 24.090737878974924,
        "lon": -105.23137079728741,
        "alt_km": 895.4949983920778,
        "timestamp": "2025-12-12T07:43:20.784983+00:00",
        "meta_object_name": "FENGYUN 1C DEB",
        "meta_object_id": "1999-025ET",
        "meta_epoch": "2025-12-11T18:03:59.320224",
        "meta_mean_motion": 14.04888038,
        "meta_eccentricity": 0.00806499,
        "meta_inclination": 99.0112,
        "meta_ra_of_asc_node": 70.135,
        "meta_arg_of_pericenter": 47.4198,
        "meta_mean_anomaly": 111.0118,
        "meta_ephemeris_type": 0,
        "meta_classification_type": "U",
        "meta_norad_cat_id": 29849,
        "meta_element_set_no": 999,
        "meta_rev_at_epoch": 96356,
        "meta_bstar": 0.0013406244,
        "meta_mean_motion_dot": 2.174e-05,
        "meta_mean_motion_ddot": 0,
        "tle_line1": "1 29849U 99025ET  25345.75276991  .00002174  00000+0  13406-2 0  9991",
        "tle_line2": "2 29849  99.0112  70.1350 0080649  47.4198 111.0118 14.04888038963568"
      },
      "geometry": {
        "type": "Point",
        "coordinates": [
          -105.23137079728741,
          24.090737878974924
        ]
      }
    }
  ]
}